{
  "type": "FeatureCollection",
  "features": [
    {
      "type": "Feature",
      "properties": {
        "norad_id": 66829,
        "name": "STARLINK-36084",
        "group": "last-30-days",
        "lat": 54.71045921695987,
        "lon": -171.23743721906604,
        "alt_km": 404.9757070194064,
        "timestamp": "2025-12-27T13:34:48.007448+00:00",
        "meta_object_name": "STARLINK-36084",
        "meta_object_id": "2025-280J",
        "meta_epoch": "2025-12-26T21:51:29.345184",
        "meta_mean_motion": 15.52482745,
        "meta_eccentricity": 0.0002994,
        "meta_inclination": 70.0004,
        "meta_ra_of_asc_node": 159.5847,
        "meta_arg_of_pericenter": 276.2035,
        "meta_mean_anomaly": 83.881,
        "meta_ephemeris_type": 0,
        "meta_classification_type": "U",
        "meta_norad_cat_id": 66829,
        "meta_element_set_no": 999,
        "meta_rev_at_epoch": 513,
        "meta_bstar": 0.0017316,
        "meta_mean_motion_dot": 0.00107671,
        "meta_mean_motion_ddot": 0,
        "tle_line1": "1 66829U 25280J   25360.91075631  .00107671  00000+0  17316-2 0  9997",
        "tle_line2": "2 66829  70.0004 159.5847 0002994 276.2035  83.8810 15.52482745  5132"
      },
      "geometry": {
        "type": "Point",
        "coordinates": [
          -171.23743721906604,
          54.71045921695987
        ]
      }
    },
    {
      "type": "Feature",
      "properties": {
        "norad_id": 66830,
        "name": "STARLINK-35881",
        "group": "last-30-days",
        "lat": 57.85135187515785,
        "lon": -166.79689665686456,
        "alt_km": 404.5303578841622,
        "timestamp": "2025-12-27T13:34:48.007459+00:00",
        "meta_object_name": "STARLINK-35881",
        "meta_object_id": "2025-280K",
        "meta_epoch": "2025-12-27T04:01:35.480064",
        "meta_mean_motion": 15.52548077,
        "meta_eccentricity": 0.00031547,
        "meta_inclination": 70.0006,
        "meta_ra_of_asc_node": 158.8761,
        "meta_arg_of_pericenter": 283.0642,
        "meta_mean_anomaly": 77.0192,
        "meta_ephemeris_type": 0,
        "meta_classification_type": "U",
        "meta_norad_cat_id": 66830,
        "meta_element_set_no": 999,
        "meta_rev_at_epoch": 517,
        "meta_bstar": 0.0019915234,
        "meta_mean_motion_dot": 0.00124416,
        "meta_mean_motion_ddot": 0,
        "tle_line1": "1 66830U 25280K   25361.16777176  .00124416  00000+0  19915-2 0  9993",
        "tle_line2": "2 66830  70.0006 158.8761 0003154 283.0642  77.0192 15.52548077  5175"
      },
      "geometry": {
        "type": "Point",
        "coordinates": [
          -166.79689665686456,
          57.85135187515785
        ]
      }
    },
    {
      "type": "Feature",
      "properties": {
        "norad_id": 66831,
        "name": "STARLINK-35788",
        "group": "last-30-days",
        "lat": 59.33871436237177,
        "lon": -164.30877919315435,
        "alt_km": 404.67187674950765,
        "timestamp": "2025-12-27T13:34:48.007471+00:00",
        "meta_object_name": "STARLINK-35788",
        "meta_object_id": "2025-280L",
        "meta_epoch": "2025-12-27T04:01:05.450880",
        "meta_mean_motion": 15.52566092,
        "meta_eccentricity": 0.00035133,
        "meta_inclination": 70.0002,
        "meta_ra_of_asc_node": 158.8757,
        "meta_arg_of_pericenter": 275.5341,
        "meta_mean_anomaly": 84.5445,
        "meta_ephemeris_type": 0,
        "meta_classification_type": "U",
        "meta_norad_cat_id": 66831,
        "meta_element_set_no": 999,
        "meta_rev_at_epoch": 517,
        "meta_bstar": 0.0022665873,
        "meta_mean_motion_dot": 0.00142037,
        "meta_mean_motion_ddot": 0,
        "tle_line1": "1 66831U 25280L   25361.16742420  .00142037  00000+0  22666-2 0  9994",
        "tle_line2": "2 66831  70.0002 158.8757 0003513 275.5341  84.5445 15.52566092  5179"
      },
      "geometry": {
        "type": "Point",
        "coordinates": [
          -164.30877919315435,
          59.33871436237177
        ]
      }
    },
    {
      "type": "Feature",
      "properties": {
        "norad_id": 66832,
        "name": "STARLINK-35768",
        "group": "last-30-days",
        "lat": 60.72700741675986,
        "lon": -161.6957047830067,
        "alt_km": 404.3190577913865,
        "timestamp": "2025-12-27T13:34:48.007481+00:00",
        "meta_object_name": "STARLINK-35768",
        "meta_object_id": "2025-280M",
        "meta_epoch": "2025-12-27T04:00:35.956512",
        "meta_mean_motion": 15.52564307,
        "meta_eccentricity": 0.00031357,
        "meta_inclination": 70.0005,
        "meta_ra_of_asc_node": 158.8732,
        "meta_arg_of_pericenter": 276.8618,
        "meta_mean_anomaly": 83.2212,
        "meta_ephemeris_type": 0,
        "meta_classification_type": "U",
        "meta_norad_cat_id": 66832,
        "meta_element_set_no": 999,
        "meta_rev_at_epoch": 517,
        "meta_bstar": 0.0021558069,
        "meta_mean_motion_dot": 0.00134951,
        "meta_mean_motion_ddot": 0,
        "tle_line1": "1 66832U 25280M   25361.16708283  .00134951  00000+0  21558-2 0  9999",
        "tle_line2": "2 66832  70.0005 158.8732 0003135 276.8618  83.2212 15.52564307  5172"
      },
      "geometry": {
        "type": "Point",
        "coordinates": [
          -161.6957047830067,
          60.72700741675986
        ]
      }
    },
    {
      "type": "Feature",
      "properties": {
        "norad_id": 66833,
        "name": "STARLINK-35858",
        "group": "last-30-days",
        "lat": 62.036652673991675,
        "lon": -158.9018574143323,
        "alt_km": 404.61051410276286,
        "timestamp": "2025-12-27T13:34:48.007491+00:00",
        "meta_object_name": "STARLINK-35858",
        "meta_object_id": "2025-280N",
        "meta_epoch": "2025-12-27T04:00:06.196896",
        "meta_mean_motion": 15.52549099,
        "meta_eccentricity": 0.00034531,
        "meta_inclination": 70.0005,
        "meta_ra_of_asc_node": 158.8719,
        "meta_arg_of_pericenter": 273.3916,
        "meta_mean_anomaly": 86.6876,
        "meta_ephemeris_type": 0,
        "meta_classification_type": "U",
        "meta_norad_cat_id": 66833,
        "meta_element_set_no": 999,
        "meta_rev_at_epoch": 517,
        "meta_bstar": 0.0013678637,
        "meta_mean_motion_dot": 0.00084983,
        "meta_mean_motion_ddot": 0,
        "tle_line1": "1 66833U 25280N   25361.16673839  .00084983  00000+0  13679-2 0  9992",
        "tle_line2": "2 66833  70.0005 158.8719 0003453 273.3916  86.6876 15.52549099  5178"
      },
      "geometry": {
        "type": "Point",
        "coordinates": [
          -158.9018574143323,
          62.036652673991675
        ]
      }
    },
    {
      "type": "Feature",
      "properties": {
        "norad_id": 66834,
        "name": "STARLINK-35840",
        "group": "last-30-days",
        "lat": 63.360145268757535,
        "lon": -155.66519090675712,
        "alt_km": 404.4016123919919,
        "timestamp": "2025-12-27T13:34:48.007501+00:00",
        "meta_object_name": "STARLINK-35840",
        "meta_object_id": "2025-280P",
        "meta_epoch": "2025-12-27T03:59:36.414816",
        "meta_mean_motion": 15.52574374,
        "meta_eccentricity": 0.00034254,
        "meta_inclination": 70.0005,
        "meta_ra_of_asc_node": 158.8705,
        "meta_arg_of_pericenter": 262.9109,
        "meta_mean_anomaly": 97.1688,
        "meta_ephemeris_type": 0,
        "meta_classification_type": "U",
        "meta_norad_cat_id": 66834,
        "meta_element_set_no": 999,
        "meta_rev_at_epoch": 517,
        "meta_bstar": 0.0022424889,
        "meta_mean_motion_dot": 0.00140538,
        "meta_mean_motion_ddot": 0,
        "tle_line1": "1 66834U 25280P   25361.16639369  .00140538  00000+0  22425-2 0  9991",
        "tle_line2": "2 66834  70.0005 158.8705 0003425 262.9109  97.1688 15.52574374  5173"
      },
      "geometry": {
        "type": "Point",
        "coordinates": [
          -155.66519090675712,
          63.360145268757535
        ]
      }
    },
    {
      "type": "Feature",
      "properties": {
        "norad_id": 66835,
        "name": "STARLINK-35890",
        "group": "last-30-days",
        "lat": 64.60017796135814,
        "lon": -152.1356769196701,
        "alt_km": 404.14973645827195,
        "timestamp": "2025-12-27T13:34:48.007511+00:00",
        "meta_object_name": "STARLINK-35890",
        "meta_object_id": "2025-280Q",
        "meta_epoch": "2025-12-26T21:47:59.836416",
        "meta_mean_motion": 15.52558431,
        "meta_eccentricity": 0.0003353,
        "meta_inclination": 70.0006,
        "meta_ra_of_asc_node": 159.5749,
        "meta_arg_of_pericenter": 274.5404,
        "meta_mean_anomaly": 85.54,
        "meta_ephemeris_type": 0,
        "meta_classification_type": "U",
        "meta_norad_cat_id": 66835,
        "meta_element_set_no": 999,
        "meta_rev_at_epoch": 513,
        "meta_bstar": 0.0014851,
        "meta_mean_motion_dot": 0.000924,
        "meta_mean_motion_ddot": 0,
        "tle_line1": "1 66835U 25280Q   25360.90833144  .00092400  00000+0  14851-2 0  9998",
        "tle_line2": "2 66835  70.0006 159.5749 0003353 274.5404  85.5400 15.52558431  5133"
      },
      "geometry": {
        "type": "Point",
        "coordinates": [
          -152.1356769196701,
          64.60017796135814
        ]
      }
    }
  ]
}